CUTE-1 (CO-55)          
1 27844U 03031E   21046.49230760  .00000042  00000-0  38320-4 0  9992
2 27844  98.6825  56.5421 0010911  74.1951 286.0429 14.22288197914680
CUBESAT XI-IV (CO-57)   
1 27848U 03031J   21046.30858952  .00000023  00000-0  30180-4 0  9990
2 27848  98.6885  56.9293 0010853  86.3951 273.8467 14.21867880914486
CUBESAT XI-V            
1 28895U 05043F   21046.34951924  .00000111  00000-0  30251-4 0  9992
2 28895  98.0382 182.4018 0015820 232.1081 127.8692 14.63864568816372
CUTE-1.7+APD II (CO-65) 
1 32785U 08021C   21046.20262738  .00000207  00000-0  27826-4 0  9997
2 32785  97.5987  29.8873 0014228  52.6756 307.5755 14.88631281694055
AAUSAT-II               
1 32788U 08021F   21045.97860851  .00000146  00000-0  18184-4 0  9992
2 32788  97.4999  45.8220 0010858 327.8194  32.2364 14.95387515695653
DELFI-C3 (DO-64)        
1 32789U 08021G   21046.51559692  .00001453  00000-0  96977-4 0  9990
2 32789  97.3916  86.5207 0011628 194.2127 165.8777 15.08488618698540
SEEDS II (CO-66)        
1 32791U 08021J   21046.18222883  .00000453  00000-0  50843-4 0  9996
2 32791  97.5610  35.8872 0013729  20.0459 340.1297 14.91275526694633
SWISSCUBE               
1 35932U 09051B   21045.52451684  .00000121  00000-0  38326-4 0  9994
2 35932  98.6073 241.6225 0008648 103.2114 257.0048 14.56487605605066
BEESAT-1                
1 35933U 09051C   21046.52566648  .00000095  00000-0  32467-4 0  9993
2 35933  98.6049 244.5070 0006802 111.2550 248.9374 14.56551806605362
ITUPSAT1                
1 35935U 09051E   21046.52615312  .00000076  00000-0  28602-4 0  9993
2 35935  98.6154 244.6690 0009122 112.6138 247.6024 14.55688874605065
TISAT 1                 
1 36799U 10035E   21046.50056852  .00000233  00000-0  29389-4 0  9990
2 36799  98.2040 232.3772 0010979 251.5713 108.4311 14.91600305575357
M-CUBED & EXP-1 PRIME   
1 37855U 11061F   21045.56536926  .00000973  00000-0  54660-4 0  9995
2 37855 101.7254 265.2438 0168343  76.0661 285.9210 15.07189592507669
AEROCUBE 4.5A           
1 38767U 12048K   21046.11999007  .00000219  00000-0  33094-4 0  9990
2 38767  64.6654 197.4249 0139320  47.9728 313.3143 14.92581769 78011
AEROCUBE 4.5B           
1 38768U 12048L   21045.92664908  .00000319  00000-0  38270-4 0  9990
2 38768  64.6669 162.2163 0130636  42.3694 318.7417 14.96366998 78152
STRAND-1                
1 39090U 13009E   21045.77225858 -.00000001  00000-0  14800-4 0  9999
2 39090  98.4363 250.7914 0008052 286.0059  74.0239 14.35168278417449
SOMP                    
1 39134U 13015E   21046.25419667  .00001555  00000-0  76721-4 0  9996
2 39134  64.8614 209.6863 0009240 221.7065 138.3359 15.21987004432999
BEESAT-3                
1 39135U 13015F   21045.93451563  .00001048  00000-0  59451-4 0  9990
2 39135  64.8645 237.9359 0012538 200.5076 159.5549 15.18908757432427
BEESAT-2                
1 39136U 13015G   21045.94755437  .00000973  00000-0  56612-4 0  9991
2 39136  64.8731 243.7872 0028035 259.8976  99.8988 15.18295431432313
NEE-01 PEGASO           
1 39151U 13018B   21046.55327723  .00000146  00000-0  26110-4 0  9994
2 39151  97.9745 149.7826 0017671  37.0846 323.1583 14.80285161421647
ESTCUBE 1               
1 39161U 13021C   21046.16544497  .00000141  00000-0  29959-4 0  9994
2 39161  97.9466 130.1344 0009404 176.8144 183.3124 14.72423540417755
POPACS 1                
1 39268U 13055D   21045.67289912  .00002943  00000-0  79723-4 0  9998
2 39268  81.0008  39.7002 0607338 221.5927 133.7539 14.41456216382865
POPACS 2                
1 39269U 13055E   21045.41476330  .00003117  00000-0  88817-4 0  9991
2 39269  81.0114  83.7869 0670889 335.9982  21.1205 14.27026338380473
POPACS 3                
1 39270U 13055F   21045.62280018  .00001928  00000-0  58052-4 0  9998
2 39270  81.0149 108.6690 0706475  47.0272 318.7954 14.17898178359432
ZACUBE-1 (TSHEPISOSAT)  
1 39417U 13066B   21046.19944521  .00000171  00000-0  27789-4 0  9994
2 39417  97.5829  36.9374 0058102 200.6051 159.2820 14.81427355390973
WNISAT-1                
1 39423U 13066H   21046.45216844  .00000080  00000-0  25870-4 0  9998
2 39423  97.8019 317.3315 0173984 217.5376 141.3574 14.53185050383712
TRITON-1                
1 39427U 13066M   21046.32463583  .00000238  00000-0  45634-4 0  9997
2 39427  97.7608   0.2330 0114115  22.0813 338.5251 14.68150671387498
GOMX-1                  
1 39430U 13066Q   21046.43782115  .00000132  00000-0  32519-4 0  9999
2 39430  97.8109 336.5434 0151506 138.7890 222.4861 14.59533364385247
CUBEBUG-2 (LO-74)       
1 39440U 13066AA  21045.83337019  .00000182  00000-0  32378-4 0  9990
2 39440  97.6613  21.3423 0078441 273.5629  85.6613 14.76161954389538
NEE-02 KRYSAOR          
1 39441U 13066AB  21045.87579674  .00000131  00000-0  25869-4 0  9991
2 39441  97.6703  18.7766 0080108 283.9241  75.3069 14.75123690388148
FUNCUBE-1 (AO-73)       
1 39444U 13066AE  21045.85264952  .00000208  00000-0  31719-4 0  9998
2 39444  97.5745  38.9445 0057394 192.6659 167.3117 14.82314798389869
UWE-3                   
1 39446U 13066AG  21045.94848121  .00000175  00000-0  29909-4 0  9997
2 39446  97.6239  28.5014 0068436 238.2060 121.2474 14.78695906388995
AEROCUBE 5A             
1 39465U 13072D   21045.79361477  .00003578  00000-0  29058-3 0  9996
2 39465 120.4955 322.5815 0262222 131.8642 230.5104 14.79491476 77182
AEROCUBE 5B             
1 39466U 13072E   21045.91688695  .00006219  00000-0  40598-3 0  9992
2 39466 120.4699  13.2305 0232808 142.7738 218.9707 14.89871984 77658
BRITE-CA1 (TORONTO)     
1 40020U 14033L   21046.35400886  .00000110  00000-0  26964-4 0  9997
2 40020  97.7327 226.7088 0087717  18.4199 342.0148 14.66707129356366
DUCHIFAT-1              
1 40021U 14033M   21046.48326386  .00000325  00000-0  38559-4 0  9995
2 40021  97.9630 345.4752 0012091 200.6971 159.3758 14.91179824362107
NANOSATC-BR1            
1 40024U 14033Q   21045.70462582  .00000388  00000-0  45866-4 0  9999
2 40024  97.9438 340.2264 0011291 208.8667 151.1927 14.90303536361318
QB50P1                  
1 40025U 14033R   21045.54188113  .00000320  00000-0  39677-4 0  9996
2 40025  97.9278 335.9638 0011380 218.2121 141.8290 14.89328334361631
QB50P2                  
1 40032U 14033Y   21046.07230567  .00000282  00000-0  36153-4 0  9997
2 40032  97.9134 333.3931 0010887 213.0473 147.0064 14.88844407361609
PERSEUS-M2              
1 40037U 14033AD  21046.18297550  .00000081  00000-0  15316-4 0  9994
2 40037  97.8913 326.6923 0013167 233.2334 126.7673 14.86626134361229
PERSEUS-M1              
1 40039U 14033AF  21046.18710868  .00000064  00000-0  13557-4 0  9994
2 40039  97.8861 325.1962 0013047 231.4189 128.5858 14.86246801361139
POLYITAN-1              
1 40042U 14033AJ  21045.84585160  .00000318  00000-0  39677-4 0  9998
2 40042  97.9368 336.9721 0013732 208.4015 151.6455 14.89113243361060
TIGRISAT                
1 40043U 14033AK  21046.51113884  .00000116  00000-0  24488-4 0  9994
2 40043  97.6836 256.6484 0058550 293.4033  66.1026 14.74478524358164
AEROCUBE 6A             
1 40045U 14033AM  21046.03266390  .00000192  00000-0  34743-4 0  9993
2 40045  97.7084 262.8721 0056546 285.2158  74.2804 14.75735640358121
AEROCUBE 6B             
1 40046U 14033AN  21046.04244497  .00000257  00000-0  43970-4 0  9993
2 40046  97.6983 261.8669 0055500 284.0650  75.4395 14.75745358358262
UKUBE-1                 
1 40074U 14037F   21046.37985125  .00000321  00000-0  45292-4 0  9995
2 40074  98.4411 255.0895 0005355  62.3767 297.7987 14.84454462357799
BRITE-PL2 (HEWELIUSZ)   
1 40119U 14049B   21046.50542290  .00000129  00000-0  21660-4 0  9994
2 40119  97.8882 142.2950 0018153  38.7453 321.5059 14.84600314351847
FIREBIRD 4              
1 40378U 15003C   21046.24923807  .00003187  00000-0  12088-3 0  9990
2 40378  99.0834 162.2522 0119746 221.7841 137.4200 15.21459897334211
GRIFEX                  
1 40379U 15003D   21046.10853075  .00001636  00000-0  70764-4 0  9998
2 40379  99.0828 152.4163 0129284 252.3492 106.3585 15.17358387333630
CP10 (EXOCUBE)          
1 40380U 15003E   21045.98774190  .00001056  00000-0  49825-4 0  9995
2 40380  99.0865 147.1770 0134591 270.3768  88.2038 15.15148507333271
AEROCUBE 8A             
1 40659U 15025J   21045.57578627  .00031293  00000-0  23099-3 0  9990
2 40659  55.0097 244.9910 0082970  89.9331 271.1218 15.68148189 81383
AEROCUBE 8B             
1 40660U 15025K   21045.92827654  .00029661  00000-0  21424-3 0  9994
2 40660  55.0068 240.4130 0081479  93.3369 267.6998 15.68828225 81461
TIANWANG 1C (TW-1C)     
1 40926U 15051B   21046.44231888  .00366326  60107-4  65298-3 0  9991
2 40926  97.0366 108.7161 0003719 220.6749 264.0332 16.01804089305283
TIANWANG 1A (TW-1A)     
1 40928U 15051D   21046.34029227  .00003187  00000-0  70433-4 0  9997
2 40928  97.0893  74.2035 0010604  31.0468  97.3457 15.44511176302831
EXACTVIEW 9             
1 40936U 15052G   21046.45858770  .00000785  00000-0  20645-4 0  9993
2 40936   6.0042  47.4173 0010018 102.8414 257.2834 14.76653309291155
AEROCUBE 5C             
1 40965U 15058B   21045.95379293  .00000047  00000-0  24490-4 0  9996
2 40965  64.7775 129.3661 0192461 348.9548  10.7356 14.74666743 77064
AEROCUBE 7              
1 40966U 15058C   21045.67903691  .00000116  00000-0  31913-4 0  9996
2 40966  64.7775 128.3221 0191376 348.6943  10.9888 14.74999656 77037
ATHENOXAT 1             
1 41168U 15077C   21045.44371796  .00002260  00000-0  80651-4 0  9997
2 41168  14.9895  85.0436 0011066 261.0592 135.8957 15.15174459286098
GALASSIA                
1 41170U 15077E   21046.42723355  .00002057  00000-0  69465-4 0  9995
2 41170  14.9895  68.8593 0012244 300.7491  59.1625 15.15438690286317
VELOX-II                
1 41171U 15077F   21046.36065202  .00001590  00000-0  51436-4 0  9999
2 41171  14.9911 122.3602 0008559 178.9573 181.0766 15.12216815285808
